[{"OBJECT_NAME":"STARLINK-35468","OBJECT_ID":"2025-237E","EPOCH":"2026-03-09T04:59:50.630496","MEAN_MOTION":15.30193843,"ECCENTRICITY":0.00011921,"INCLINATION":53.1601,"RA_OF_ASC_NODE":42.0915,"ARG_OF_PERICENTER":74.2458,"MEAN_ANOMALY":285.8674,"EPHEMERIS_TYPE":0,"CLASSIFICATION_TYPE":"U","NORAD_CAT_ID":66118,"ELEMENT_SET_NO":999,"REV_AT_EPOCH":2253,"BSTAR":0.0014561469,"MEAN_MOTION_DOT":0.00043009,"MEAN_MOTION_DDOT":0},{"OBJECT_NAME":"FENGYUN 1C DEB","OBJECT_ID":"1999-025FBF","EPOCH":"2026-03-06T07:33:49.292640","MEAN_MOTION":15.04395515,"ECCENTRICITY":0.01189701,"INCLINATION":98.9505,"RA_OF_ASC_NODE":84.7158,"ARG_OF_PERICENTER":75.0888,"MEAN_ANOMALY":286.3472,"EPHEMERIS_TYPE":0,"CLASSIFICATION_TYPE":"U","NORAD_CAT_ID":47029,"ELEMENT_SET_NO":999,"REV_AT_EPOCH":4330,"BSTAR":0.0027080259,"MEAN_MOTION_DOT":0.00044409,"MEAN_MOTION_DDOT":0}]
